GPS BIIF-10             
1 40730U 15033A   22039.25183047 -.00000100  00000+0  00000+0 0  9992
2 40730  55.2824 331.8796 0072326   3.9142 356.1554  2.00558873 48108
METEOSAT-11 (MSG-4)     
1 40732U 15034A   22040.34047082 -.00000001  00000+0  00000+0 0  9995
2 40732   0.2117 338.4826 0001365  93.2938 190.0370  1.00277127 24094
GSAT0205 (GALILEO 9)    
1 40889U 15045A   22039.00354636  .00000025  00000+0  00000+0 0  9992
2 40889  55.7089 265.5381 0006332  22.5531 337.5323  1.70475045 39907
GSAT0206 (GALILEO 10)   
1 40890U 15045B   22039.81068134  .00000031  00000+0  00000+0 0  9995
2 40890  55.7074 265.5116 0004538  18.7588 341.3171  1.70473364 39944
GPS BIIF-11             
1 41019U 15062A   22040.29849678 -.00000053  00000+0  00000+0 0  9997
2 41019  55.7083  92.8401 0076287 217.0463 142.4851  2.00563140 45962
ELEKTRO-L 2             
1 41105U 15074A   22040.84003220 -.00000114  00000+0  00000+0 0  9990
2 41105   2.6678  89.6446 0001264 151.2492 186.8965  1.00270418 22589
GSAT0209 (GALILEO 12)   
1 41174U 15079A   22039.39930210 -.00000017  00000+0  00000+0 0  9999
2 41174  55.1180 144.9504 0003045 308.9896  50.9768  1.70473724 37674
GSAT0208 (GALILEO 11)   
1 41175U 15079B   22040.20552527 -.00000019  00000+0  00000+0 0  9995
2 41175  55.1164 144.9269 0002291 307.9484  52.0231  1.70473733 38263
GPS BIIF-12             
1 41328U 16007A   22040.39540066 -.00000017  00000+0  00000+0 0  9990
2 41328  54.8865 152.5579 0057139 226.5770 132.9358  2.00551842 43975
GSAT0211 (GALILEO 14)   
1 41549U 16030A   22038.56535436  .00000023  00000+0  00000+0 0  9998
2 41549  55.8533 265.4653 0004639 353.7513   6.3002  1.70474771 35551
GSAT0210 (GALILEO 13)   
1 41550U 16030B   22040.03122405  .00000033  00000+0  00000+0 0  9994
2 41550  55.8518 265.4264 0002893 336.2575  23.7890  1.70474935 35570
INSAT-3DR               
1 41752U 16054A   22040.71408907 -.00000073  00000+0  00000+0 0  9998
2 41752   0.0565  99.0192 0012949 178.5372 193.2456  1.00272301 19876
GSAT0207 (GALILEO 15)   
1 41859U 16069A   22038.51857848 -.00000014  00000+0  00000+0 0  9994
2 41859  54.7775 145.1879 0003125 288.5776  71.3822  1.70473667 32282
GSAT0212 (GALILEO 16)   
1 41860U 16069B   22040.71832731 -.00000020  00000+0  00000+0 0  9992
2 41860  54.7755 145.1247 0001902 323.6259  36.3521  1.70473708 32574
GSAT0213 (GALILEO 17)   
1 41861U 16069C   22039.32405504 -.00000017  00000+0  00000+0 0  9998
2 41861  54.7775 145.1683 0003165 258.0821 101.8755  1.70473731 32416
GSAT0214 (GALILEO 18)   
1 41862U 16069D   22038.88457073 -.00000015  00000+0  00000+0 0  9995
2 41862  54.7759 145.1753 0002235 258.4440 101.5244  1.70473846 32535
GOES 16                 
1 41866U 16071A   22041.16229969 -.00000244  00000+0  00000+0 0  9992
2 41866   0.0885 270.7308 0001091  74.7281 137.9675  1.00271850 19186
GSAT-17                 
1 42815U 17040B   22040.71801389 -.00000255  00000+0  00000+0 0  9998
2 42815   0.0959 275.1443 0006103 355.0412 221.5859  1.00272579 16946
GSAT0215 (GALILEO 19)   
1 43055U 17079A   22038.78881856  .00000025  00000+0  00000+0 0  9992
2 43055  55.8285 265.2936 0002320 341.9501  18.0988  1.70474038 25875
GSAT0216 (GALILEO 20)   
1 43056U 17079B   22039.66772546  .00000031  00000+0  00000+0 0  9993
2 43056  55.8282 265.2691 0003506 316.2524  43.7785  1.70474194 25905
GSAT0217 (GALILEO 21)   
1 43057U 17079C   22039.88793280  .00000032  00000+0  00000+0 0  9997
2 43057  55.8255 265.2628 0003761 332.6618  27.3777  1.70474099 25896
GSAT0218 (GALILEO 22)   
1 43058U 17079D   22040.10793687  .00000034  00000+0  00000+0 0  9998
2 43058  55.8269 265.2542 0003668 307.8482  52.1785  1.70474172 25927
GOES 17                 
1 43226U 18022A   22040.59751172  .00000101  00000+0  00000+0 0  9995
2 43226   0.0624 268.5979 0000445  49.3597 259.5713  1.00272102 14492
GSAT0221 (GALILEO 25)   
1 43564U 18060A   22038.83270675 -.00000077  00000+0  00000+0 0  9993
2 43564  57.1265  24.6935 0005701 285.1270  74.8106  1.70475862 22052
GSAT0222 (GALILEO 26)   
1 43565U 18060B   22040.22572153 -.00000074  00000+0  00000+0 0  9993
2 43565  57.1294  24.6561 0005438 292.2696  67.6749  1.70475846 22121
GSAT0219 (GALILEO 23)   
1 43566U 18060C   22039.27312553 -.00000076  00000+0  00000+0 0  9995
2 43566  57.1294  24.6838 0005102 292.8925  67.0549  1.70475867 22077
GSAT0220 (GALILEO 24)   
1 43567U 18060D   22039.49315458 -.00000076  00000+0  00000+0 0  9997
2 43567  57.1292  24.6776 0005232 288.6880  71.2567  1.70475911 22071
BEIDOU-3 M13            
1 43622U 18072A   22040.96299488 -.00000055  00000+0  00000+0 0  9997
2 43622  55.4062 115.6400 0006746 277.7113 263.3095  1.86231406 23070
BEIDOU-3 M14            
1 43623U 18072B   22039.51529255 -.00000053  00000+0  00000+0 0  9993
2 43623  55.4061 115.6804 0004163 300.4371  80.2048  1.86231414 23050
GPS BIII-1              
1 43873U 18109A   22040.77416057 -.00000016  00000+0  00000+0 0  9995
2 43873  55.0676 154.9341 0017268 191.9601 338.0790  2.00565774 23162
METEOR-M2 2             
1 44387U 19038A   22041.15778592 -.00000008  00000+0  15948-4 0  9999
2 44387  98.7056   3.0777 0000577 351.9366   8.1805 14.23698662135298
GPS BIII-2              
1 44506U 19056A   22040.40255189 -.00000069  00000+0  00000+0 0  9996
2 44506  55.6188  34.1428 0021031 184.4404 340.0511  2.00570123 18203
BEIDOU-3 M23            
1 44542U 19061A   22040.40226290  .00000085  00000+0  00000+0 0  9990
2 44542  54.6243 236.4615 0008534 354.1786   5.8360  1.86231499 16200
BEIDOU-3 M24            
1 44543U 19061B   22040.25388127  .00000084  00000+0  00000+0 0  9991
2 44543  54.6212 236.4373 0005751 352.2582 179.4042  1.86231741 16192
BEIDOU-3 M21            
1 44793U 19078A   22039.45658389 -.00000109  00000+0  10000-3 0  9990
2 44793  55.0128 355.0558 0007116   0.1920 190.5690  1.86232150 15046
BEIDOU-3 M22            
1 44794U 19078B   22040.64455536 -.00000109  00000+0  00000+0 0  9998
2 44794  54.9856 355.0104 0005211 351.7900 186.8702  1.86232616 15068
ELEKTRO-L 3             
1 44903U 19095A   22041.14512147 -.00000092  00000+0  00000+0 0  9998
2 44903   0.0872 281.0180 0001387  34.8615 312.5661  1.00270287  7788
GPS BIII-3              
1 45854U 20041A   22040.47859677 -.00000052  00000+0  00000+0 0  9990
2 45854  55.4251  91.4104 0019454 175.8940 343.0603  2.00560568 12167
GPS BIII-4              
1 46826U 20078A   22040.03239569  .00000005  00000+0  00000+0 0  9991
2 46826  54.6524 275.3049 0014061 182.4029 346.3139  2.00566679  9630
GSAT0223 (GALILEO 27)   
1 49809U 21116A   22040.13692278 -.00000074  00000+0  00000+0 0  9997
2 49809  57.1227  24.5590 0002444 255.2295 229.7332  1.70476096  1093
GSAT0224 (GALILEO 28)   
1 49810U 21116B   22039.44872330 -.00000076  00000+0  00000+0 0  9992
2 49810  57.1230  24.5757 0002015 269.3498 265.7442  1.70476038  1109
CRE (WAAS/PRN 138)      
1 28868U 05036A   22040.62272271 -.00000071  00000+0  00000+0 0  9990
2 28868   0.2395  94.0383 0002528 267.7163 254.7748  1.00272557 30525
IOR-W (EGNOS/PRN 126)   
1 28899U 05044A   22041.14267936  .00000014  00000+0  00000+0 0  9999
2 28899   3.4063  36.1869 0002913 286.2794 292.9695  1.00272314 59578
QZS-1 (QZSS/PRN 183)    
1 37158U 10045A   22040.58995500 -.00000193  00000+0  00000+0 0  9995
2 37158  42.2027 135.1612 0765309 270.5909  88.9179  1.00263699 41816
GSAT-8 (GAGAN/PRN 127)  
1 37605U 11022A   22041.14093500  .00000088  00000+0  00000+0 0  9992
2 37605   0.0572 274.3776 0007750   5.7555 325.8484  1.00274125 39311
LUCH 5A (SDCM/PRN 140)  
1 37951U 11074B   22040.87614054 -.00000047  00000+0  00000+0 0  9991
2 37951   4.6990 100.2216 0002705 239.2688 282.7619  1.00274021 37269
SES-5 (EGNOS/PRN 136)   
1 38652U 12036A   22040.34151744  .00000037  00000+0  00000+0 0  9991
2 38652   0.0559 286.0088 0002101  27.2111 314.0844  1.00272550 28551
GSAT-10 (GAGAN/PRN 128) 
1 38779U 12051B   22040.50060351 -.00000162  00000+0  00000+0 0  9999
2 38779   0.0571 274.4242 0003278 348.3918 139.9506  1.00272497 34170
LUCH 5B (SDCM/PRN 125)  
1 38977U 12061A   22040.40902435 -.00000135  00000+0  00000+0 0  9997
2 38977   7.0143  63.5624 0000980 327.9341 238.8685  1.00270921 34248
ASTRA 5B (EGNOS/PRN 123)
1 39617U 14011B   22040.49022455  .00000158  00000+0  00000+0 0  9994
2 39617   0.0565 302.8929 0004276   1.1501  43.4570  1.00270300 28730
LUCH 5V (SDCM/PRN 141)  
1 39727U 14023A   22040.71827556 -.00000265  00000+0  00000+0 0  9999
2 39727   1.2038  72.5798 0002522 288.2366 132.2116  1.00268765546587
GSAT-15 (GAGAN/PRN 139) 
1 41028U 15065A   22040.71801389 -.00000254  00000+0  00000+0 0  9997
2 41028   0.0116 106.7715 0001164 195.4506 189.5109  1.00271132 22930
E 117 W B (WAAS/PRN 131)
1 41589U 16038B   22041.15654347 -.00000008  00000+0  00000+0 0  9996
2 41589   0.0141 225.8446 0000421 216.3741 357.3359  1.00272744 20786
SES-15 (WAAS/PRN 133)   
1 42709U 17026A   22041.14917142  .00000063  00000+0  00000+0 0  9993
2 42709   0.0211  13.4728 0001004 303.9388 107.3114  1.00277352 18263
QZS-2 (QZSS/PRN 184)    
1 42738U 17028A   22040.94425796 -.00000123  00000+0  00000+0 0  9991
2 42738  41.9836 265.9635 0750869 269.9947  85.0430  1.00272573 17212
QZS-3 (QZSS/PRN 189)    
1 42917U 17048A   22040.72464248 -.00000344  00000+0  00000+0 0  9998
2 42917   0.0563 167.6538 0001569 141.9621 218.0651  1.00271678 16440
QZS-4 (QZSS/PRN 185)    
1 42965U 17062A   22040.22672340 -.00000340  00000+0  00000+0 0  9992
2 42965  40.7946   3.7590 0750694 269.1509  86.0715  1.00289477 15882
HST                     
1 20580U 90037B   22040.44357961  .00002072  00000+0  11334-3 0  9996
2 20580  28.4702 296.6401 0002739  96.5938  71.3172 15.10018751546846
POLAR                   
1 23802U 96013A   22037.86978692  .00000272  00000+0  00000+0 0  9992
2 23802  78.7380 242.9297 5869431 263.3165  30.6927  1.29846857124179
